NORAD_CAT_ID,OBJECT_NAME,OBJECT_TYPE,EPOCH,MEAN_MOTION,ECCENTRICITY,INCLINATION,RA_OF_ASC_NODE,ARG_OF_PERICENTER,MEAN_ANOMALY,BSTAR,MEAN_MOTION_DOT,MEAN_MOTION_DDOT,TLE_LINE0,TLE_LINE1,TLE_LINE2,SEMIMAJOR_AXIS,PERIOD,APOGEE,PERIGEE,DECAYED
50175.0,STARLINK-3291,PAYLOAD,2024-03-19 11:28:28,15.08838633,0.0001404,53.2165,242.2708,87.7771,272.3382,4.2846e-05,3.94e-06,0.0,0 STARLINK-3291,1 50175U 21125V   24079.47810901  .00000394  00000-0  42846-4 0  9995,2 50175  53.2165 242.2708 0001404  87.7771 272.3382 15.08838633127386,6917.885,95.438,540.721,538.778,0.0
50175.0,STARLINK-3291,PAYLOAD,2024-03-20 09:43:52,15.08838475,0.0001102,53.2162,238.1125,87.5524,272.5594,7.8817e-05,9.67e-06,0.0,0 STARLINK-3291,1 50175U 21125V   24080.40546911  .00000967  00000-0  78817-4 0  9990,2 50175  53.2162 238.1125 0001102  87.5524 272.5594 15.08838475128011,6917.885,95.438,540.512,538.988,0.0
50175.0,STARLINK-3291,PAYLOAD,2024-03-20 16:05:25,15.08835313,9.84e-05,53.2159,236.9182,115.7799,244.3295,4.0695e-05,3.6e-06,0.0,0 STARLINK-3291,1 50175U 21125V   24080.67043276  .00000360  00000-0  40695-4 0  9995,2 50175  53.2159 236.9182 0000984 115.7799 244.3295 15.08835313127563,6917.895,95.438,540.44,539.079,0.0
50175.0,STARLINK-3291,PAYLOAD,2024-03-21 14:20:49,15.08837778,0.0001046,53.2162,232.7551,121.9371,238.1723,3.5545e-05,2.78e-06,0.0,0 STARLINK-3291,1 50175U 21125V   24081.59779432  .00000278  00000-0  35545-4 0  9993,2 50175  53.2162 232.7551 0001046 121.9371 238.1723 15.08837778128190,6917.887,95.438,540.476,539.029,0.0
50175.0,STARLINK-3291,PAYLOAD,2024-03-21 17:31:34,15.08872523,0.0001259,53.2161,232.1622,71.6873,288.4256,-0.00035568,-5.949e-05,0.0,0 STARLINK-3291,1 50175U 21125V   24081.73026403 -.00005949  00000-0 -35568-3 0  9998,2 50175  53.2161 232.1622 0001259  71.6873 288.4256 15.08872523127720,6917.781,95.435,540.517,538.775,0.0
50175.0,STARLINK-3291,PAYLOAD,2024-03-22 09:25:27,15.08826368,0.0001601,53.2173,229.1963,53.4402,306.6738,0.00021497,3.134e-05,0.0,0 STARLINK-3291,1 50175U 21125V   24082.39268137  .00003134  00000-0  21497-3 0  9991,2 50175  53.2173 229.1963 0001601  53.4402 306.6738 15.08826368127829,6917.922,95.438,540.895,538.679,0.0
50175.0,STARLINK-3291,PAYLOAD,2024-03-22 14:11:37,15.08828686,0.0001008,53.2167,228.2951,117.9158,242.1936,3.4167e-05,2.56e-06,0.0,0 STARLINK-3291,1 50175U 21125V   24082.59140509  .00000256  00000-0  34167-4 0  9996,2 50175  53.2167 228.2951 0001008 117.9158 242.1936 15.08828686128341,6917.915,95.438,540.477,539.083,0.0
50175.0,STARLINK-3291,PAYLOAD,2024-03-22 17:22:23,15.08828348,9.98e-05,53.2169,227.701,104.0617,256.0486,3.5936e-05,2.84e-06,0.0,0 STARLINK-3291,1 50175U 21125V   24082.72388686  .00000284  00000-0  35936-4 0  9997,2 50175  53.2169 227.7010 0000998 104.0617 256.0486 15.08828348128368,6917.916,95.438,540.471,539.091,0.0
50175.0,STARLINK-3291,PAYLOAD,2024-03-23 09:16:15,15.08810831,0.0001277,53.2165,224.7265,104.2641,255.8493,0.00033446,5.035e-05,0.0,0 STARLINK-3291,1 50175U 21125V   24083.38628987  .00005035  00000-0  33446-3 0  9993,2 50175  53.2165 224.7265 0001277 104.2641 255.8493 15.08810831127972,6917.97,95.439,540.718,538.951,0.0
50175.0,STARLINK-3291,PAYLOAD,2024-03-23 18:48:32,15.08857914,0.0001211,53.2174,222.9421,95.6722,264.4408,0.00017625,2.52e-05,0.0,0 STARLINK-3291,1 50175U 21125V   24083.78370945  .00002520  00000-0  17625-3 0  9992,2 50175  53.2174 222.9421 0001211  95.6722 264.4408 15.08857914128030,6917.826,95.436,540.528,538.853,0.0
50175.0,STARLINK-3291,PAYLOAD,2024-03-24 13:53:10,15.08845249,0.0001467,53.2158,219.3713,132.7407,227.3709,0.00017798,2.546e-05,0.0,0 STARLINK-3291,1 50175U 21125V   24084.57859493  .00002546  00000-0  17798-3 0  9999,2 50175  53.2158 219.3713 0001467 132.7407 227.3709 15.08845249128155,6917.864,95.437,540.744,538.714,0.0
50175.0,STARLINK-3291,PAYLOAD,2024-03-24 18:39:19,15.08847976,0.0001771,53.2164,218.477,147.8771,212.2329,0.00016645,2.363e-05,0.0,0 STARLINK-3291,1 50175U 21125V   24084.77731139  .00002363  00000-0  16645-3 0  9994,2 50175  53.2164 218.4770 0001771 147.8771 212.2329 15.08847976128671,6917.856,95.437,540.946,538.496,0.0
50175.0,STARLINK-3291,PAYLOAD,2024-03-25 15:19:20,15.08861041,0.0001063,53.2162,214.6133,90.9339,269.1775,2.0128e-05,3.3e-07,0.0,0 STARLINK-3291,1 50175U 21125V   24085.63842612  .00000033  00000-0  20128-4 0  9993,2 50175  53.2162 214.6133 0001063  90.9339 269.1775 15.08861041128318,6917.816,95.436,540.416,538.946,0.0
50175.0,STARLINK-3291,PAYLOAD,2024-03-26 13:34:46,15.08816478,0.0001636,53.2156,210.4492,125.862,234.2524,-0.00021045,-3.634e-05,0.0,0 STARLINK-3291,1 50175U 21125V   24086.56581749 -.00003634  00000-0 -21045-3 0  9997,2 50175  53.2156 210.4492 0001636 125.8620 234.2524 15.08816478128454,6917.952,95.439,540.949,538.686,0.0
50175.0,STARLINK-3291,PAYLOAD,2024-03-26 15:10:10,15.08812466,0.0001467,53.2166,210.1611,103.5234,256.5922,-0.00014596,-2.608e-05,0.0,0 STARLINK-3291,1 50175U 21125V   24086.63206186 -.00002608  00000-0 -14596-3 0  9997,2 50175  53.2166 210.1611 0001467 103.5234 256.5922 15.08812466128958,6917.965,95.439,540.844,538.815,0.0
50175.0,STARLINK-3291,PAYLOAD,2024-03-27 00:42:28,15.08830994,0.0001292,53.2165,208.3725,72.7051,287.4082,-0.00015532,-2.758e-05,0.0,0 STARLINK-3291,1 50175U 21125V   24087.02949259 -.00002758  00000-0 -15532-3 0  9993,2 50175  53.2165 208.3725 0001292  72.7051 287.4082 15.08830994128521,6917.908,95.438,540.667,538.879,0.0
50175.0,STARLINK-3291,PAYLOAD,2024-03-27 13:25:32,15.08840293,0.0001637,53.2183,205.9991,94.9552,265.1627,7.2277e-05,8.62e-06,0.0,0 STARLINK-3291,1 50175U 21125V   24087.55940463  .00000862  00000-0  72277-4 0  9991,2 50175  53.2183 205.9991 0001637  94.9552 265.1627 15.08840293128604,6917.879,95.438,540.877,538.612,0.0
50175.0,STARLINK-3291,PAYLOAD,2024-03-27 15:00:55,15.0884684,0.0001341,53.2163,205.6997,90.5157,269.5989,7.0954e-05,8.42e-06,0.0,0 STARLINK-3291,1 50175U 21125V   24087.62563923  .00000842  00000-0  70954-4 0  9999,2 50175  53.2163 205.6997 0001341  90.5157 269.5989 15.08846840129109,6917.859,95.437,540.652,538.797,0.0
50175.0,STARLINK-3291,PAYLOAD,2024-03-28 00:33:12,15.08862419,0.0001307,53.2172,203.911,71.9358,288.1776,0.00017529,2.505e-05,0.0,0 STARLINK-3291,1 50175U 21125V   24088.02306317  .00002505  00000-0  17529-3 0  9992,2 50175  53.2172 203.9110 0001307  71.9358 288.1776 15.08862419128677,6917.812,95.436,540.581,538.773,0.0
50175.0,STARLINK-3291,PAYLOAD,2024-03-28 11:40:57,15.08821114,0.0001744,53.2175,201.8359,97.5485,262.5705,0.00024625,3.631e-05,0.0,0 STARLINK-3291,1 50175U 21125V   24088.48677285  .00003631  00000-0  24625-3 0  9993,2 50175  53.2175 201.8359 0001744  97.5485 262.5705 15.08821114128745,6917.938,95.439,541.01,538.597,0.0
50175.0,STARLINK-3291,PAYLOAD,2024-03-28 18:02:29,15.08826162,0.0002002,53.2171,200.646,94.6215,265.5006,0.00026214,3.885e-05,0.0,0 STARLINK-3291,1 50175U 21125V   24088.75173214  .00003885  00000-0  26214-3 0  9993,2 50175  53.2171 200.6460 0002002  94.6215 265.5006 15.08826162129272,6917.923,95.438,541.173,538.403,0.0
50175.0,STARLINK-3291,PAYLOAD,2024-03-29 11:31:43,15.08840169,0.0001808,53.2184,197.3726,87.1737,272.9462,0.00012032,1.627e-05,0.0,0 STARLINK-3291,1 50175U 21125V   24089.48036867  .00001627  00000-0  12032-3 0  9991,2 50175  53.2184 197.3726 0001808  87.1737 272.9462 15.08840169128890,6917.88,95.438,540.996,538.494,0.0
50175.0,STARLINK-3291,PAYLOAD,2024-03-29 16:17:53,15.08846712,0.0001887,53.2175,196.4794,88.0427,272.0781,3.0335e-05,1.95e-06,0.0,0 STARLINK-3291,1 50175U 21125V   24089.67908648  .00000195  00000-0  30335-4 0  9993,2 50175  53.2175 196.4794 0001887  88.0427 272.0781 15.08846712129412,6917.86,95.437,541.03,538.419,0.0
50175.0,STARLINK-3291,PAYLOAD,2024-03-30 00:14:47,15.08857419,0.0001558,53.2164,194.9909,86.984,273.133,-2.3555e-05,-6.63e-06,0.0,0 STARLINK-3291,1 50175U 21125V   24090.01027748 -.00000663  00000-0 -23555-4 0  9994,2 50175  53.2164 194.9909 0001558  86.9840 273.1330 15.08857419128970,6917.827,95.436,540.77,538.614,0.0
50175.0,STARLINK-3291,PAYLOAD,2024-03-30 12:57:54,15.08832304,0.0001534,53.2145,192.6151,94.5678,265.5489,-1.8952e-05,-5.9e-06,0.0,0 STARLINK-3291,1 50175U 21125V   24090.54021352 -.00000590  00000-0 -18952-4 0  9991,2 50175  53.2145 192.6151 0001534  94.5678 265.5489 15.08832304129057,6917.904,95.438,540.83,538.708,0.0
50175.0,STARLINK-3291,PAYLOAD,2024-03-31 00:05:35,15.08847707,0.0001487,53.2179,190.5311,98.2098,261.9063,0.00012897,1.766e-05,0.0,0 STARLINK-3291,1 50175U 21125V   24091.00387989  .00001766  00000-0  12897-3 0  9999,2 50175  53.2179 190.5311 0001487  98.2098 261.9063 15.08847707129122,6917.857,95.437,540.751,538.693,0.0
50175.0,STARLINK-3291,PAYLOAD,2024-03-31 12:48:45,15.08773084,0.0001612,53.2175,188.1552,101.1944,258.9229,-0.0006055,-9.894e-05,0.0,0 STARLINK-3291,1 50175U 21125V   24091.53386183 -.00009894  00000-0 -60550-3 0  9993,2 50175  53.2175 188.1552 0001612 101.1944 258.9229 15.08773084129207,6918.085,95.442,541.065,538.835,0.0
50175.0,STARLINK-3291,PAYLOAD,2024-03-31 15:59:30,15.08792415,0.0001494,53.2175,187.5604,101.6041,258.5119,-0.00042631,-7.057e-05,0.0,0 STARLINK-3291,1 50175U 21125V   24091.66632877 -.00007057  00000-0 -42631-3 0  9990,2 50175  53.2175 187.5604 0001494 101.6041 258.5119 15.08792415129224,6918.026,95.441,540.924,538.857,0.0
50175.0,STARLINK-3291,PAYLOAD,2024-03-31 23:56:24,15.08818195,0.0001409,53.2176,186.0734,102.0131,258.1019,-0.00018985,-3.306e-05,0.0,0 STARLINK-3291,1 50175U 21125V   24091.99751068 -.00003306  00000-0 -18985-3 0  9998,2 50175  53.2176 186.0734 0001409 102.0131 258.1019 15.08818195129278,6917.947,95.439,540.787,538.837,0.0
50175.0,STARLINK-3291,PAYLOAD,2024-04-01 12:39:29,15.0883541,0.0001527,53.2155,183.6928,100.158,259.9584,0.0001141,1.528e-05,0.0,0 STARLINK-3291,1 50175U 21125V   24092.52742052  .00001528  00000-0  11410-3 0  9999,2 50175  53.2155 183.6928 0001527 100.1580 259.9584 15.08835410129355,6917.894,95.438,540.816,538.703,0.0
